[{"OBJECT_NAME":"NUSAT-50 (NANCY ROMAN)","OBJECT_ID":"2024-149AB","EPOCH":"2026-03-09T19:15:16.765632","MEAN_MOTION":15.29713355,"ECCENTRICITY":0.00025229,"INCLINATION":97.3817,"RA_OF_ASC_NODE":150.7693,"ARG_OF_PERICENTER":238.0469,"MEAN_ANOMALY":122.0527,"EPHEMERIS_TYPE":0,"CLASSIFICATION_TYPE":"U","NORAD_CAT_ID":60493,"ELEMENT_SET_NO":999,"REV_AT_EPOCH":8693,"BSTAR":0.0004225155,"MEAN_MOTION_DOT":0.00012094,"MEAN_MOTION_DDOT":0},{"OBJECT_NAME":"STARLINK-35264","OBJECT_ID":"2025-224U","EPOCH":"2026-03-09T06:22:11.199360","MEAN_MOTION":15.30192029,"ECCENTRICITY":0.00012438,"INCLINATION":53.1603,"RA_OF_ASC_NODE":13.0061,"ARG_OF_PERICENTER":64.3975,"MEAN_ANOMALY":295.7154,"EPHEMERIS_TYPE":0,"CLASSIFICATION_TYPE":"U","NORAD_CAT_ID":65900,"ELEMENT_SET_NO":999,"REV_AT_EPOCH":2480,"BSTAR":0.001342141,"MEAN_MOTION_DOT":0.00039593,"MEAN_MOTION_DDOT":0}]
